{"type": "FeatureCollection", "features": [ {"type": "Feature", "properties": {"norad_id": 57401, "name": "TIANMU-1 09", "group": "weather", "lat": -15.232672208271845, "lon": 43.40318684419696, "alt_km": 485.6192575633522, "timestamp": "2025-12-18T08:58:43.035240+00:00", "meta": {"OBJECT_NAME": "TIANMU-1 09", "OBJECT_ID": "2023-101C", "EPOCH": "2025-12-17T23:36:59.382432", "MEAN_MOTION": 15.2816091, "ECCENTRICITY": 0.00066203, "INCLINATION": 97.2821, "RA_OF_ASC_NODE": 41.0264, "ARG_OF_PERICENTER": 69.5369, "MEAN_ANOMALY": 290.6581, "EPHEMERIS_TYPE": 0, "CLASSIFICATION_TYPE": "U", "NORAD_CAT_ID": 57401, "ELEMENT_SET_NO": 999, "REV_AT_EPOCH": 13395, "BSTAR": 0.00022679499, "MEAN_MOTION_DOT": 6.156e-05, "MEAN_MOTION_DDOT": 0}, "tle": {"line1": "1 57401U 23101C   25351.98402063  .00006156  00000+0  22679-3 0  9998", "line2": "2 57401  97.2821  41.0264 0006620  69.5369 290.6581 15.28160910133952"}}, "geometry": {"type": "Point", "coordinates": [43.40318684419696, -15.232672208271845]}}, {"type": "Feature", "properties": {"norad_id": 57402, "name": "TIANMU-1 10", "group": "weather", "lat": 23.006525692610026, "lon": -134.620669821043, "alt_km": 480.97470766401784, "timestamp": "2025-12-18T08:58:43.035250+00:00", "meta": {"OBJECT_NAME": "TIANMU-1 10", "OBJECT_ID": "2023-101D", "EPOCH": "2025-12-17T22:52:00.343200", "MEAN_MOTION": 15.28151855, "ECCENTRICITY": 0.00083561, "INCLINATION": 97.2901, "RA_OF_ASC_NODE": 41.8511, "ARG_OF_PERICENTER": 68.5094, "MEAN_ANOMALY": 291.7036, "EPHEMERIS_TYPE": 0, "CLASSIFICATION_TYPE": "U", "NORAD_CAT_ID": 57402, "ELEMENT_SET_NO": 999, "REV_AT_EPOCH": 13394, "BSTAR": 0.00023820521, "MEAN_MOTION_DOT": 6.47e-05, "MEAN_MOTION_DDOT": 0}, "tle": {"line1": "1 57402U 23101D   25351.95278175  .00006470  00000+0  23821-3 0  9990", "line2": "2 57402  97.2901  41.8511 0008356  68.5094 291.7036 15.28151855133941"}}, "geometry": {"type": "Point", "coordinates": [-134.620669821043, 23.006525692610026]}}, {"type": "Feature", "properties": {"norad_id": 57490, "name": "FENGYUN 3F", "group": "weather", "lat": 24.381350200057966, "lon": 56.593316250243284, "alt_km": 824.9604381182826, "timestamp": "2025-12-18T08:58:43.035260+00:00", "meta": {"OBJECT_NAME": "FENGYUN 3F", "OBJECT_ID": "2023-111A", "EPOCH": "2025-12-17T22:42:55.484928", "MEAN_MOTION": 14.19894898, "ECCENTRICITY": 7.179e-05, "INCLINATION": 98.7078, "RA_OF_ASC_NODE": 60.1557, "ARG_OF_PERICENTER": 110.0592, "MEAN_ANOMALY": 250.0662, "EPHEMERIS_TYPE": 0, "CLASSIFICATION_TYPE": "U", "NORAD_CAT_ID": 57490, "ELEMENT_SET_NO": 999, "REV_AT_EPOCH": 12314, "BSTAR": 5.2990904e-05, "MEAN_MOTION_DOT": 6.9e-07, "MEAN_MOTION_DDOT": 0}, "tle": {"line1": "1 57490U 23111A   25351.94647552  .00000069  00000+0  52991-4 0  9995", "line2": "2 57490  98.7078  60.1557 0000717 110.0592 250.0662 14.19894898123146"}}, "geometry": {"type": "Point", "coordinates": [56.593316250243284, 24.381350200057966]}}, {"type": "Feature", "properties": {"norad_id": 58584, "name": "ARKTIKA-M 2", "group": "weather", "lat": 42.956646447421456, "lon": -157.6730334302222, "alt_km": 24066.95101363913, "timestamp": "2025-12-18T08:58:43.035271+00:00", "meta": {"OBJECT_NAME": "ARKTIKA-M 2", "OBJECT_ID": "2023-198A", "EPOCH": "2025-12-15T07:41:54.278304", "MEAN_MOTION": 2.00603484, "ECCENTRICITY": 0.68650912, "INCLINATION": 63.2249, "RA_OF_ASC_NODE": 174.6089, "ARG_OF_PERICENTER": 268.096, "MEAN_ANOMALY": 18.8351, "EPHEMERIS_TYPE": 0, "CLASSIFICATION_TYPE": "U", "NORAD_CAT_ID": 58584, "ELEMENT_SET_NO": 999, "REV_AT_EPOCH": 1463, "BSTAR": 0, "MEAN_MOTION_DOT": 2.02e-06, "MEAN_MOTION_DDOT": 0}, "tle": {"line1": "1 58584U 23198A   25349.32076711  .00000202  00000+0  00000+0 0  9995", "line2": "2 58584  63.2249 174.6089 6865091 268.0960  18.8351  2.00603484 14636"}}, "geometry": {"type": "Point", "coordinates": [-157.6730334302222, 42.956646447421456]}}, {"type": "Feature", "properties": {"norad_id": 58645, "name": "TIANMU-1 11", "group": "weather", "lat": -81.19707943260606, "lon": 135.31807328349538, "alt_km": 494.2900459304383, "timestamp": "2025-12-18T08:58:43.035284+00:00", "meta": {"OBJECT_NAME": "TIANMU-1 11", "OBJECT_ID": "2023-205A", "EPOCH": "2025-12-17T23:56:34.363680", "MEAN_MOTION": 15.24663144, "ECCENTRICITY": 0.00076207, "INCLINATION": 97.3599, "RA_OF_ASC_NODE": 11.5289, "ARG_OF_PERICENTER": 288.2199, "MEAN_ANOMALY": 71.8209, "EPHEMERIS_TYPE": 0, "CLASSIFICATION_TYPE": "U", "NORAD_CAT_ID": 58645, "ELEMENT_SET_NO": 999, "REV_AT_EPOCH": 10989, "BSTAR": 0.00021427703, "MEAN_MOTION_DOT": 5.226e-05, "MEAN_MOTION_DDOT": 0}, "tle": {"line1": "1 58645U 23205A   25351.99761995  .00005226  00000+0  21428-3 0  9995", "line2": "2 58645  97.3599  11.5289 0007620 288.2199  71.8209 15.24663144109892"}}, "geometry": {"type": "Point", "coordinates": [135.31807328349538, -81.19707943260606]}}, {"type": "Feature", "properties": {"norad_id": 58646, "name": "TIANMU-1 12", "group": "weather", "lat": 63.950930614101836, "lon": -152.9663347297854, "alt_km": 489.4013164977787, "timestamp": "2025-12-18T08:58:43.035294+00:00", "meta": {"OBJECT_NAME": "TIANMU-1 12", "OBJECT_ID": "2023-205B", "EPOCH": "2025-12-17T23:01:26.422176", "MEAN_MOTION": 15.24547126, "ECCENTRICITY": 0.00057661, "INCLINATION": 97.3588, "RA_OF_ASC_NODE": 11.295, "ARG_OF_PERICENTER": 267.7765, "MEAN_ANOMALY": 92.2812, "EPHEMERIS_TYPE": 0, "CLASSIFICATION_TYPE": "U", "NORAD_CAT_ID": 58646, "ELEMENT_SET_NO": 999, "REV_AT_EPOCH": 10987, "BSTAR": 0.00021731014, "MEAN_MOTION_DOT": 5.281e-05, "MEAN_MOTION_DDOT": 0}, "tle": {"line1": "1 58646U 23205B   25351.95933359  .00005281  00000+0  21731-3 0  9995", "line2": "2 58646  97.3588  11.2950 0005766 267.7765  92.2812 15.24547126109879"}}, "geometry": {"type": "Point", "coordinates": [-152.9663347297854, 63.950930614101836]}}, {"type": "Feature", "properties": {"norad_id": 58647, "name": "TIANMU-1 13", "group": "weather", "lat": -66.94036056608046, "lon": 29.585386614038985, "alt_km": 496.5498997884624, "timestamp": "2025-12-18T08:58:43.035306+00:00", "meta": {"OBJECT_NAME": "TIANMU-1 13", "OBJECT_ID": "2023-205C", "EPOCH": "2025-12-17T23:49:32.193408", "MEAN_MOTION": 15.24590933, "ECCENTRICITY": 0.00061707, "INCLINATION": 97.3615, "RA_OF_ASC_NODE": 11.5309, "ARG_OF_PERICENTER": 243.3, "MEAN_ANOMALY": 116.7606, "EPHEMERIS_TYPE": 0, "CLASSIFICATION_TYPE": "U", "NORAD_CAT_ID": 58647, "ELEMENT_SET_NO": 999, "REV_AT_EPOCH": 10987, "BSTAR": 0.00022360043, "MEAN_MOTION_DOT": 5.443e-05, "MEAN_MOTION_DDOT": 0}, "tle": {"line1": "1 58647U 23205C   25351.99273372  .00005443  00000+0  22360-3 0  9991", "line2": "2 58647  97.3615  11.5309 0006170 243.3000 116.7606 15.24590933109871"}}, "geometry": {"type": "Point", "coordinates": [29.585386614038985, -66.94036056608046]}}, {"type": "Feature", "properties": {"norad_id": 58648, "name": "TIANMU-1 14", "group": "weather", "lat": 22.36583570380825, "lon": 8.202644355618096, "alt_km": 495.16759136828205, "timestamp": "2025-12-18T08:58:43.035317+00:00", "meta": {"OBJECT_NAME": "TIANMU-1 14", "OBJECT_ID": "2023-205D", "EPOCH": "2025-12-17T23:25:42.826368", "MEAN_MOTION": 15.24573658, "ECCENTRICITY": 0.00069209, "INCLINATION": 97.3548, "RA_OF_ASC_NODE": 10.8586, "ARG_OF_PERICENTER": 249.6712, "MEAN_ANOMALY": 110.3783, "EPHEMERIS_TYPE": 0, "CLASSIFICATION_TYPE": "U", "NORAD_CAT_ID": 58648, "ELEMENT_SET_NO": 999, "REV_AT_EPOCH": 10987, "BSTAR": 0.00020390134, "MEAN_MOTION_DOT": 4.955e-05, "MEAN_MOTION_DDOT": 0}, "tle": {"line1": "1 58648U 23205D   25351.97619012  .00004955  00000+0  20390-3 0  9993", "line2": "2 58648  97.3548  10.8586 0006920 249.6712 110.3783 15.24573658109879"}}, "geometry": {"type": "Point", "coordinates": [8.202644355618096, 22.36583570380825]}}, {"type": "Feature", "properties": {"norad_id": 58660, "name": "TIANMU-1 19", "group": "weather", "lat": -14.374895777011373, "lon": 105.31934370538798, "alt_km": 488.0716603827459, "timestamp": "2025-12-18T08:58:43.035327+00:00", "meta": {"OBJECT_NAME": "TIANMU-1 19", "OBJECT_ID": "2023-208A", "EPOCH": "2025-12-17T22:02:23.065728", "MEAN_MOTION": 15.279437, "ECCENTRICITY": 0.00043286, "INCLINATION": 97.4391, "RA_OF_ASC_NODE": 102.9454, "ARG_OF_PERICENTER": 229.6705, "MEAN_ANOMALY": 130.4156, "EPHEMERIS_TYPE": 0, "CLASSIFICATION_TYPE": "U", "NORAD_CAT_ID": 58660, "ELEMENT_SET_NO": 999, "REV_AT_EPOCH": 10961, "BSTAR": 0.00029458763, "MEAN_MOTION_DOT": 7.961e-05, "MEAN_MOTION_DDOT": 0}, "tle": {"line1": "1 58660U 23208A   25351.91832252  .00007961  00000+0  29459-3 0  9992", "line2": "2 58660  97.4391 102.9454 0004328 229.6705 130.4156 15.27943700109618"}}, "geometry": {"type": "Point", "coordinates": [105.31934370538798, -14.374895777011373]}}, {"type": "Feature", "properties": {"norad_id": 58661, "name": "TIANMU-1 20", "group": "weather", "lat": 80.38206587305021, "lon": 53.462729743186124, "alt_km": 475.1017982315161, "timestamp": "2025-12-18T08:58:43.035337+00:00", "meta": {"OBJECT_NAME": "TIANMU-1 20", "OBJECT_ID": "2023-208B", "EPOCH": "2025-12-17T23:11:22.596864", "MEAN_MOTION": 15.29134463, "ECCENTRICITY": 0.00064498, "INCLINATION": 97.4329, "RA_OF_ASC_NODE": 103.4459, "ARG_OF_PERICENTER": 243.7705, "MEAN_ANOMALY": 116.2873, "EPHEMERIS_TYPE": 0, "CLASSIFICATION_TYPE": "U", "NORAD_CAT_ID": 58661, "ELEMENT_SET_NO": 999, "REV_AT_EPOCH": 10969, "BSTAR": 0.00026494302, "MEAN_MOTION_DOT": 7.42e-05, "MEAN_MOTION_DDOT": 0}, "tle": {"line1": "1 58661U 23208B   25351.96623376  .00007420  00000+0  26494-3 0  9999", "line2": "2 58661  97.4329 103.4459 0006449 243.7705 116.2873 15.29134463109690"}}, "geometry": {"type": "Point", "coordinates": [53.462729743186124, 80.38206587305021]}}]}